COMMENT,ORIGINATOR,NORAD_CAT_ID,OBJECT_NAME,OBJECT_TYPE,CLASSIFICATION_TYPE,INTLDES,EPOCH,EPOCH_MICROSECONDS,MEAN_MOTION,ECCENTRICITY,INCLINATION,RA_OF_ASC_NODE,ARG_OF_PERICENTER,MEAN_ANOMALY,EPHEMERIS_TYPE,ELEMENT_SET_NO,REV_AT_EPOCH,BSTAR,MEAN_MOTION_DOT,MEAN_MOTION_DDOT,FILE,TLE_LINE0,TLE_LINE1,TLE_LINE2,OBJECT_ID,OBJECT_NUMBER,SEMIMAJOR_AXIS,PERIOD,APOGEE,PERIGEE,DECAYED
GENERATED VIA SPACETRACK.ORG API,18 SPCS,51976,STARLINK-3663,PAYLOAD,U,22025W,2023-12-01 19:20:18,54528,15.08841553,0.0001362,53.2164,159.95,92.0897,268.0251,0,999,9593,6.6453e-05,7.7e-06,0.0,4116981,0 STARLINK-3663,1 51976U 22025W   23335.80576452  .00000770  00000-0  66453-4 0  9994,2 51976  53.2164 159.9500 0001362  92.0897 268.0251 15.08841553 95937,2022-025W,51976,6917.876,95.437,540.683,538.798,0
GENERATED VIA SPACETRACK.ORG API,18 SPCS,51976,STARLINK-3663,PAYLOAD,U,22025W,2023-12-02 12:49:32,306016,15.08842186,0.0001382,53.2164,156.6779,98.5458,261.569,0,999,9604,9.5084e-05,1.226e-05,0.0,4118466,0 STARLINK-3663,1 51976U 22025W   23336.53440169  .00001226  00000-0  95084-4 0  9999,2 51976  53.2164 156.6779 0001382  98.5458 261.5690 15.08842186 96046,2022-025W,51976,6917.874,95.437,540.695,538.783,0
GENERATED VIA SPACETRACK.ORG API,18 SPCS,51976,STARLINK-3663,PAYLOAD,U,22025W,2023-12-02 19:11:04,522560,15.08846562,0.0001394,53.2164,155.4884,97.1507,262.9643,0,999,9608,0.00012954,1.775e-05,0.0,4119201,0 STARLINK-3663,1 51976U 22025W   23336.79935790  .00001775  00000-0  12954-3 0  9999,2 51976  53.2164 155.4884 0001394  97.1507 262.9643 15.08846562 96082,2022-025W,51976,6917.86,95.437,540.69,538.761,0
GENERATED VIA SPACETRACK.ORG API,18 SPCS,51976,STARLINK-3663,PAYLOAD,U,22025W,2023-12-03 19:01:53,153184,15.0882957,0.0001356,53.2172,151.0267,90.2285,269.8863,0,999,9734,-2.8895e-05,-7.48e-06,0.0,4120923,0 STARLINK-3663,1 51976U 22025W   23337.79297631 -.00000748  00000-0 -28895-4 0  9998,2 51976  53.2172 151.0267 0001356  90.2285 269.8863 15.08829570 97343,2022-025W,51976,6917.912,95.438,540.715,538.839,0
GENERATED VIA SPACETRACK.ORG API,18 SPCS,51976,STARLINK-3663,PAYLOAD,U,22025W,2023-12-04 10:55:44,870016,15.0883087,0.0001325,53.2169,148.0527,104.9311,255.1828,0,999,9633,-7.7907e-05,-1.527e-05,0.0,4122164,0 STARLINK-3663,1 51976U 22025W   23338.45538044 -.00001527  00000-0 -77907-4 0  9992,2 51976  53.2169 148.0527 0001325 104.9311 255.1828 15.08830870 96335,2022-025W,51976,6917.908,95.438,540.69,538.857,0
GENERATED VIA SPACETRACK.ORG API,18 SPCS,51976,STARLINK-3663,PAYLOAD,U,22025W,2023-12-05 10:46:31,845216,15.08826688,0.0001344,53.2165,143.5983,67.2412,292.8722,0,999,9759,0.00018792,2.703e-05,0.0,4123826,0 STARLINK-3663,1 51976U 22025W   23339.44897969  .00002703  00000-0  18792-3 0  9997,2 51976  53.2165 143.5983 0001344  67.2412 292.8722 15.08826688 97593,2022-025W,51976,6917.921,95.438,540.716,538.856,0
GENERATED VIA SPACETRACK.ORG API,18 SPCS,51976,STARLINK-3663,PAYLOAD,U,22025W,2023-12-05 10:46:31,845216,15.08826688,0.0001344,53.2165,143.5983,67.2412,292.8722,0,999,9648,0.00018792,2.703e-05,0.0,4123878,0 STARLINK-3663,1 51976U 22025W   23339.44897969  .00002703  00000-0  18792-3 0  9997,2 51976  53.2165 143.5983 0001344  67.2412 292.8722 15.08826688 96480,2022-025W,51976,6917.921,95.438,540.716,538.856,0
GENERATED VIA SPACETRACK.ORG API,18 SPCS,51976,STARLINK-3663,PAYLOAD,U,22025W,2023-12-05 20:18:50,534208,15.08831691,0.0001332,53.2163,141.8148,68.1818,291.9316,0,999,9654,0.00021297,3.102e-05,0.0,4124334,0 STARLINK-3663,1 51976U 22025W   23339.84641822  .00003102  00000-0  21297-3 0  9994,2 51976  53.2163 141.8148 0001332  68.1818 291.9316 15.08831691 96545,2022-025W,51976,6917.906,95.438,540.692,538.849,0
GENERATED VIA SPACETRACK.ORG API,18 SPCS,51976,STARLINK-3663,PAYLOAD,U,22025W,2023-12-06 10:37:18,271776,15.08843231,0.0001331,53.2167,139.1343,86.5322,273.5822,0,999,9774,8.1974e-05,1.017e-05,0.0,4125488,0 STARLINK-3663,1 51976U 22025W   23340.44257259  .00001017  00000-0  81974-4 0  9991,2 51976  53.2167 139.1343 0001331  86.5322 273.5822 15.08843231 97743,2022-025W,51976,6917.871,95.437,540.656,538.815,0
GENERATED VIA SPACETRACK.ORG API,18 SPCS,51976,STARLINK-3663,PAYLOAD,U,22025W,2023-12-06 10:37:18,271776,15.08843231,0.0001331,53.2167,139.1343,86.5322,273.5822,0,999,9663,8.1974e-05,1.017e-05,0.0,4125534,0 STARLINK-3663,1 51976U 22025W   23340.44257259  .00001017  00000-0  81974-4 0  9991,2 51976  53.2167 139.1343 0001331  86.5322 273.5822 15.08843231 96630,2022-025W,51976,6917.871,95.437,540.656,538.815,0
GENERATED VIA SPACETRACK.ORG API,18 SPCS,51976,STARLINK-3663,PAYLOAD,U,22025W,2023-12-06 20:09:36,619488,15.08848392,0.0001346,53.2168,137.3508,88.8313,271.2833,0,999,9669,0.00012052,1.631e-05,0.0,4126527,0 STARLINK-3663,1 51976U 22025W   23340.84000717  .00001631  00000-0  12052-3 0  9992,2 51976  53.2168 137.3508 0001346  88.8313 271.2833 15.08848392 96691,2022-025W,51976,6917.855,95.437,540.651,538.789,0
GENERATED VIA SPACETRACK.ORG API,18 SPCS,51976,STARLINK-3663,PAYLOAD,U,22025W,2023-12-06 20:09:36,619488,15.08848392,0.0001346,53.2168,137.3508,88.8313,271.2833,0,999,9780,0.00012052,1.631e-05,0.0,4127573,0 STARLINK-3663,1 51976U 22025W   23340.84000717  .00001631  00000-0  12052-3 0  9992,2 51976  53.2168 137.3508 0001346  88.8313 271.2833 15.08848392 97805,2022-025W,51976,6917.855,95.437,540.651,538.789,0
GENERATED VIA SPACETRACK.ORG API,18 SPCS,51976,STARLINK-3663,PAYLOAD,U,22025W,2023-12-08 10:18:52,497792,15.08838199,0.0001213,53.2165,130.2146,93.832,266.2811,0,999,9804,2.1208e-05,5e-07,0.0,4128696,0 STARLINK-3663,1 51976U 22025W   23342.42977428  .00000050  00000-0  21208-4 0  9998,2 51976  53.2165 130.2146 0001213  93.8320 266.2811 15.08838199 98040,2022-025W,51976,6917.886,95.438,540.59,538.912,0
GENERATED VIA SPACETRACK.ORG API,18 SPCS,51976,STARLINK-3663,PAYLOAD,U,22025W,2023-12-08 13:29:38,666112,15.08840348,0.000134,53.2173,129.621,85.3508,274.7637,0,999,9695,3.6692e-05,2.96e-06,0.0,4128726,0 STARLINK-3663,1 51976U 22025W   23342.56225308  .00000296  00000-0  36692-4 0  9991,2 51976  53.2173 129.6210 0001340  85.3508 274.7637 15.08840348 96955,2022-025W,51976,6917.879,95.438,540.671,538.817,0
GENERATED VIA SPACETRACK.ORG API,18 SPCS,51976,STARLINK-3663,PAYLOAD,U,22025W,2023-12-09 10:09:38,5056,15.08855365,0.0001258,53.2171,125.7523,99.928,260.1854,0,999,9819,0.00015229,2.138e-05,0.0,4130206,0 STARLINK-3663,1 51976U 22025W   23343.42335654  .00002138  00000-0  15229-3 0  9992,2 51976  53.2171 125.7523 0001258  99.9280 260.1854 15.08855365 98196,2022-025W,51976,6917.833,95.437,540.569,538.828,0
GENERATED VIA SPACETRACK.ORG API,18 SPCS,51976,STARLINK-3663,PAYLOAD,U,22025W,2023-12-09 13:20:25,415808,15.0883774,0.0001092,53.2171,125.1566,76.9025,283.2089,0,999,9710,-1.7082e-06,-3.15e-06,0.0,4130247,0 STARLINK-3663,1 51976U 22025W   23343.55584972 -.00000315  00000-0 -17082-5 0  9993,2 51976  53.2171 125.1566 0001092  76.9025 283.2089 15.08837740 97108,2022-025W,51976,6917.887,95.438,540.508,538.997,0
GENERATED VIA SPACETRACK.ORG API,18 SPCS,51976,STARLINK-3663,PAYLOAD,U,22025W,2023-12-09 13:20:25,415808,15.0883774,0.0001092,53.2171,125.1566,76.9025,283.2089,0,999,9821,-1.7082e-06,-3.15e-06,0.0,4130714,0 STARLINK-3663,1 51976U 22025W   23343.55584972 -.00000315  00000-0 -17082-5 0  9993,2 51976  53.2171 125.1566 0001092  76.9025 283.2089 15.08837740 98211,2022-025W,51976,6917.887,95.438,540.508,538.997,0
GENERATED VIA SPACETRACK.ORG API,18 SPCS,51976,STARLINK-3663,PAYLOAD,U,22025W,2023-12-10 10:00:27,223200,15.08825202,0.0001117,53.2195,121.2902,75.319,284.7926,0,999,9834,-5.1392e-05,-1.105e-05,0.0,4131642,0 STARLINK-3663,1 51976U 22025W   23344.41698175 -.00001105  00000-0 -51392-4 0  9999,2 51976  53.2195 121.2902 0001117  75.3190 284.7926 15.08825202 98342,2022-025W,51976,6917.926,95.438,540.563,539.018,0
GENERATED VIA SPACETRACK.ORG API,18 SPCS,51976,STARLINK-3663,PAYLOAD,U,22025W,2023-12-10 14:46:35,905440,15.0886042,7.67e-05,53.2178,120.4008,71.8721,288.2355,0,999,9726,-0.0004599,-7.603e-05,0.0,4131684,0 STARLINK-3663,1 51976U 22025W   23344.61569335 -.00007603  00000-0 -45990-3 0  9991,2 51976  53.2178 120.4008 0000767  71.8721 288.2355 15.08860420 97268,2022-025W,51976,6917.818,95.436,540.214,539.152,0
GENERATED VIA SPACETRACK.ORG API,18 SPCS,51976,STARLINK-3663,PAYLOAD,U,22025W,2023-12-10 16:21:56,414880,15.08987185,4.26e-05,53.218,120.1019,96.3232,263.7808,0,999,9838,-0.0021086,-0.00033823,0.0,4132289,0 STARLINK-3663,1 51976U 22025W   23344.68190295 -.00033823  00000-0 -21086-2 0  9995,2 51976  53.2180 120.1019 0000426  96.3232 263.7808 15.08987185 98384,2022-025W,51976,6917.431,95.428,539.59,539.001,0
GENERATED VIA SPACETRACK.ORG API,18 SPCS,51976,STARLINK-3663,PAYLOAD,U,22025W,2023-12-10 16:21:56,414880,15.08987185,4.26e-05,53.218,120.1019,96.3232,263.7808,0,999,9727,-0.0021086,-0.00033823,0.0,4132333,0 STARLINK-3663,1 51976U 22025W   23344.68190295 -.00033823  00000-0 -21086-2 0  9995,2 51976  53.2180 120.1019 0000426  96.3232 263.7808 15.08987185 97271,2022-025W,51976,6917.431,95.428,539.59,539.001,0
GENERATED VIA SPACETRACK.ORG API,18 SPCS,51976,STARLINK-3663,PAYLOAD,U,22025W,2023-12-11 00:18:54,804384,15.08841211,0.0001157,53.218,118.6161,78.4454,281.6668,0,999,9843,-0.0001041,-1.944e-05,0.0,4132761,0 STARLINK-3663,1 51976U 22025W   23345.01313431 -.00001944  00000-0 -10410-3 0  9991,2 51976  53.2180 118.6161 0001157  78.4454 281.6668 15.08841211 98431,2022-025W,51976,6917.877,95.437,540.542,538.941,0
GENERATED VIA SPACETRACK.ORG API,18 SPCS,51976,STARLINK-3663,PAYLOAD,U,22025W,2023-12-11 14:37:22,757088,15.08835659,0.0001131,53.2169,115.9423,86.4197,273.6925,0,999,9741,0.00011379,1.523e-05,0.0,4133233,0 STARLINK-3663,1 51976U 22025W   23345.60929117  .00001523  00000-0  11379-3 0  9996,2 51976  53.2169 115.9423 0001131  86.4197 273.6925 15.08835659 97417,2022-025W,51976,6917.894,95.438,540.541,538.976,0
